{
  "type": "FeatureCollection",
  "features": [
    {
      "type": "Feature",
      "properties": {
        "norad_id": 35718,
        "name": "COSMOS 2251 DEB",
        "group": "cosmos-2251-debris",
        "lat": -12.295623109433631,
        "lon": -28.87791859792366,
        "alt_km": 661.7358094162182,
        "timestamp": "2025-12-03T15:48:03.462677+00:00",
        "meta_object_name": "COSMOS 2251 DEB",
        "meta_object_id": "1993-036AQP",
        "meta_epoch": "2025-11-28T18:49:36.496416",
        "meta_mean_motion": 14.68279459,
        "meta_eccentricity": 0.00123436,
        "meta_inclination": 74.0315,
        "meta_ra_of_asc_node": 156.9668,
        "meta_arg_of_pericenter": 206.7375,
        "meta_mean_anomaly": 153.316,
        "meta_ephemeris_type": 0,
        "meta_classification_type": "U",
        "meta_norad_cat_id": 35718,
        "meta_element_set_no": 999,
        "meta_rev_at_epoch": 65635,
        "meta_bstar": 0.0013999458,
        "meta_mean_motion_dot": 8.062e-05,
        "meta_mean_motion_ddot": 0,
        "tle_line1": "1 35718U 93036AQP 25332.78445019  .00008062  00000+0  13999-2 0  9996",
        "tle_line2": "2 35718  74.0315 156.9668 0012343 206.7375 153.3160 14.68279459656359"
      },
      "geometry": {
        "type": "Point",
        "coordinates": [
          -28.87791859792366,
          -12.295623109433631
        ]
      }
    },
    {
      "type": "Feature",
      "properties": {
        "norad_id": 35721,
        "name": "COSMOS 2251 DEB",
        "group": "cosmos-2251-debris",
        "lat": -64.5889007493421,
        "lon": 51.75881720976445,
        "alt_km": 787.7553935232108,
        "timestamp": "2025-12-03T15:48:03.462687+00:00",
        "meta_object_name": "COSMOS 2251 DEB",
        "meta_object_id": "1993-036AQS",
        "meta_epoch": "2025-11-29T21:54:16.243200",
        "meta_mean_motion": 14.34192363,
        "meta_eccentricity": 0.01464404,
        "meta_inclination": 73.9503,
        "meta_ra_of_asc_node": 201.3539,
        "meta_arg_of_pericenter": 350.3358,
        "meta_mean_anomaly": 9.498,
        "meta_ephemeris_type": 0,
        "meta_classification_type": "U",
        "meta_norad_cat_id": 35721,
        "meta_element_set_no": 999,
        "meta_rev_at_epoch": 57605,
        "meta_bstar": 0.0014885779,
        "meta_mean_motion_dot": 4.68e-05,
        "meta_mean_motion_ddot": 0,
        "tle_line1": "1 35721U 93036AQS 25333.91268800  .00004680  00000+0  14886-2 0  9995",
        "tle_line2": "2 35721  73.9503 201.3539 0146440 350.3358   9.4980 14.34192363576055"
      },
      "geometry": {
        "type": "Point",
        "coordinates": [
          51.75881720976445,
          -64.5889007493421
        ]
      }
    },
    {
      "type": "Feature",
      "properties": {
        "norad_id": 35724,
        "name": "COSMOS 2251 DEB",
        "group": "cosmos-2251-debris",
        "lat": 43.57365183596898,
        "lon": 124.15789655967863,
        "alt_km": 655.2578454414725,
        "timestamp": "2025-12-03T15:48:03.462697+00:00",
        "meta_object_name": "COSMOS 2251 DEB",
        "meta_object_id": "1993-036AQV",
        "meta_epoch": "2025-11-30T08:09:18.426240",
        "meta_mean_motion": 14.58149733,
        "meta_eccentricity": 0.00590888,
        "meta_inclination": 74.0317,
        "meta_ra_of_asc_node": 326.2795,
        "meta_arg_of_pericenter": 123.6188,
        "meta_mean_anomaly": 237.0635,
        "meta_ephemeris_type": 0,
        "meta_classification_type": "U",
        "meta_norad_cat_id": 35724,
        "meta_element_set_no": 999,
        "meta_rev_at_epoch": 87348,
        "meta_bstar": 0.00024156118,
        "meta_mean_motion_dot": 1.11e-05,
        "meta_mean_motion_ddot": 0,
        "tle_line1": "1 35724U 93036AQV 25334.33979660  .00001110  00000+0  24156-3 0  9995",
        "tle_line2": "2 35724  74.0317 326.2795 0059088 123.6188 237.0635 14.58149733873489"
      },
      "geometry": {
        "type": "Point",
        "coordinates": [
          124.15789655967863,
          43.57365183596898
        ]
      }
    },
    {
      "type": "Feature",
      "properties": {
        "norad_id": 35759,
        "name": "COSMOS 2251 DEB",
        "group": "cosmos-2251-debris",
        "lat": 44.04082601114482,
        "lon": 37.44195993014305,
        "alt_km": 714.676726839768,
        "timestamp": "2025-12-03T15:48:03.462706+00:00",
        "meta_object_name": "COSMOS 2251 DEB",
        "meta_object_id": "1993-036ARD",
        "meta_epoch": "2025-12-02T09:41:30.767712",
        "meta_mean_motion": 14.648293,
        "meta_eccentricity": 0.00766899,
        "meta_inclination": 74.0385,
        "meta_ra_of_asc_node": 235.9215,
        "meta_arg_of_pericenter": 356.5872,
        "meta_mean_anomaly": 3.4761,
        "meta_ephemeris_type": 0,
        "meta_classification_type": "U",
        "meta_norad_cat_id": 35759,
        "meta_element_set_no": 999,
        "meta_rev_at_epoch": 65984,
        "meta_bstar": 0.00048578617,
        "meta_mean_motion_dot": 2.675e-05,
        "meta_mean_motion_ddot": 0,
        "tle_line1": "1 35759U 93036ARD 25336.40382833  .00002675  00000+0  48579-3 0  9995",
        "tle_line2": "2 35759  74.0385 235.9215 0076689 356.5872   3.4761 14.64829300659847"
      },
      "geometry": {
        "type": "Point",
        "coordinates": [
          37.44195993014305,
          44.04082601114482
        ]
      }
    },
    {
      "type": "Feature",
      "properties": {
        "norad_id": 35771,
        "name": "COSMOS 2251 DEB",
        "group": "cosmos-2251-debris",
        "lat": 32.12363268324286,
        "lon": -23.443103204364775,
        "alt_km": 945.3532203343748,
        "timestamp": "2025-12-03T15:48:03.462715+00:00",
        "meta_object_name": "COSMOS 2251 DEB",
        "meta_object_id": "1993-036ARR",
        "meta_epoch": "2025-12-01T22:51:30.244896",
        "meta_mean_motion": 14.12926683,
        "meta_eccentricity": 0.02319351,
        "meta_inclination": 74.1552,
        "meta_ra_of_asc_node": 329.2812,
        "meta_arg_of_pericenter": 270.0606,
        "meta_mean_anomaly": 87.396,
        "meta_ephemeris_type": 0,
        "meta_classification_type": "U",
        "meta_norad_cat_id": 35771,
        "meta_element_set_no": 999,
        "meta_rev_at_epoch": 82708,
        "meta_bstar": 0.0067662276,
        "meta_mean_motion_dot": 0.00016281,
        "meta_mean_motion_ddot": 0,
        "tle_line1": "1 35771U 93036ARR 25335.95243339  .00016281  00000+0  67662-2 0  9996",
        "tle_line2": "2 35771  74.1552 329.2812 0231935 270.0606  87.3960 14.12926683827080"
      },
      "geometry": {
        "type": "Point",
        "coordinates": [
          -23.443103204364775,
          32.12363268324286
        ]
      }
    },
    {
      "type": "Feature",
      "properties": {
        "norad_id": 35773,
        "name": "COSMOS 2251 DEB",
        "group": "cosmos-2251-debris",
        "lat": 64.9575343793058,
        "lon": 140.3732635843853,
        "alt_km": 659.6340228866884,
        "timestamp": "2025-12-03T15:48:03.462724+00:00",
        "meta_object_name": "COSMOS 2251 DEB",
        "meta_object_id": "1993-036ART",
        "meta_epoch": "2025-12-02T11:22:55.223328",
        "meta_mean_motion": 14.61975653,
        "meta_eccentricity": 0.00461275,
        "meta_inclination": 74.0081,
        "meta_ra_of_asc_node": 0.509,
        "meta_arg_of_pericenter": 163.389,
        "meta_mean_anomaly": 196.8801,
        "meta_ephemeris_type": 0,
        "meta_classification_type": "U",
        "meta_norad_cat_id": 35773,
        "meta_element_set_no": 999,
        "meta_rev_at_epoch": 86689,
        "meta_bstar": 0.0006966713,
        "meta_mean_motion_dot": 3.515e-05,
        "meta_mean_motion_ddot": 0,
        "tle_line1": "1 35773U 93036ART 25336.47425027  .00003515  00000+0  69667-3 0  9996",
        "tle_line2": "2 35773  74.0081   0.5090 0046127 163.3890 196.8801 14.61975653866898"
      },
      "geometry": {
        "type": "Point",
        "coordinates": [
          140.3732635843853,
          64.9575343793058
        ]
      }
    },
    {
      "type": "Feature",
      "properties": {
        "norad_id": 35777,
        "name": "COSMOS 2251 DEB",
        "group": "cosmos-2251-debris",
        "lat": -70.03727543497784,
        "lon": -149.4418447835689,
        "alt_km": 801.2472349651416,
        "timestamp": "2025-12-03T15:48:03.462733+00:00",
        "meta_object_name": "COSMOS 2251 DEB",
        "meta_object_id": "1993-036ARX",
        "meta_epoch": "2025-12-02T10:40:29.464608",
        "meta_mean_motion": 13.41287955,
        "meta_eccentricity": 0.04528031,
        "meta_inclination": 73.7709,
        "meta_ra_of_asc_node": 339.1914,
        "meta_arg_of_pericenter": 235.501,
        "meta_mean_anomaly": 282.7283,
        "meta_ephemeris_type": 0,
        "meta_classification_type": "U",
        "meta_norad_cat_id": 35777,
        "meta_element_set_no": 999,
        "meta_rev_at_epoch": 79546,
        "meta_bstar": 0.00081766672,
        "meta_mean_motion_dot": 8.07e-06,
        "meta_mean_motion_ddot": 0,
        "tle_line1": "1 35777U 93036ARX 25336.44478547  .00000807  00000+0  81767-3 0  9998",
        "tle_line2": "2 35777  73.7709 339.1914 0452803 235.5010 282.7283 13.41287955795460"
      },
      "geometry": {
        "type": "Point",
        "coordinates": [
          -149.4418447835689,
          -70.03727543497784
        ]
      }
    }
  ]
}